[{"OBJECT_NAME":"HAWK-A","OBJECT_ID":"2018-099H","EPOCH":"2026-03-09T16:13:51.062880","MEAN_MOTION":15.23231043,"ECCENTRICITY":0.00342596,"INCLINATION":97.4051,"RA_OF_ASC_NODE":122.2425,"ARG_OF_PERICENTER":275.5523,"MEAN_ANOMALY":84.1807,"EPHEMERIS_TYPE":0,"CLASSIFICATION_TYPE":"U","NORAD_CAT_ID":43765,"ELEMENT_SET_NO":999,"REV_AT_EPOCH":39794,"BSTAR":0.00036104215,"MEAN_MOTION_DOT":8.617e-5,"MEAN_MOTION_DDOT":0},{"OBJECT_NAME":"STARLINK-34363","OBJECT_ID":"2025-133AB","EPOCH":"2026-03-09T10:47:30.152256","MEAN_MOTION":15.30124969,"ECCENTRICITY":0.0001463,"INCLINATION":53.161,"RA_OF_ASC_NODE":117.7629,"ARG_OF_PERICENTER":77.999,"MEAN_ANOMALY":282.1175,"EPHEMERIS_TYPE":0,"CLASSIFICATION_TYPE":"U","NORAD_CAT_ID":64497,"ELEMENT_SET_NO":999,"REV_AT_EPOCH":4115,"BSTAR":0.00045496528,"MEAN_MOTION_DOT":0.00013108,"MEAN_MOTION_DDOT":0}]
